#dP2018  6  7  0  0  0.00000000      96 __u+U IGS08 FIT  IAC
## 2004 345600.00000000   900.00000000 58276 0.0000000000000
+   85   C01C02C03C04C05C06C07C08C09C10C11C12C13C14E01E02E03
+        E04E05E07E08E09E11E12E14E18E19E24E26E30G01G02G03G05
+        G06G07G08G09G10G11G12G13G14G15G16G17G18G19G20G21G22
+        G23G24G25G26G27G28G29G30G31G32J01R01R02R03R04R05R07
+        R08R09R10R11R13R14R15R16R17R18R19R20R21R22R23R24R26
++        12 12 12 12 12  8  8  9  8  0  7  7  8  8  7  7  7
++         7  7  7  7  7  7  7  7  8  7  7  7  7  5  3  3  3
++         3  3  3  3  3  3  3  3  3  3  3  3  3  3  3  3  3
++         3  3  3  3  3  3  3  3  3  3  8  5  5  5  5  6  5
++         5  5  5  5  5  5  5  5  5  5  6  6  5  7  5  5  8
%c M  cc GPS ccc cccc cccc cccc cccc ccccc ccccc ccccc ccccc
%c cc cc ccc ccc cccc cccc cccc cccc ccccc ccccc ccccc ccccc
%f  1.2500000  1.025000000  0.00000000000  0.000000000000000
%f  0.0000000  0.000000000  0.00000000000  0.000000000000000
%i    0    0    0    0      0      0      0      0         0
%i    0    0    0    0      0      0      0      0         0
/* INFORMATION & ANALYSIS CENTER (IAC)            FINAL DATA
/* S/V CLOCKS ARE ALIGNED TO GPS & GLONASS TIME RESPECTIVELY
/* USING THE BROADCAST EPHEMERIS                            
/* PCV:IGS14_2000 OL/AL:FES2004  NONE     YN ORB:CoN CLK:CoN
*  2018 06 07  0 45  0.00000000
PC01 -32306.321798  27091.031329    781.375371   -200.233616
PC02   4366.601182  41919.176366  -1347.486231    164.362325
PC03 -14748.724467  39462.761707      5.457711   -191.711898
PC04 -39622.482732  14433.887208    175.087436    -55.830930
PC05  21875.231480  36020.770982  -1030.508056    381.237441
PC06 -15462.151468  38038.462990  -8515.053058     44.527492
PC07 -10101.269194  24478.999968  32981.901622    119.036629
PC08 -25308.256468  23551.867601 -24233.002534    377.820697
PC09  -6690.950051  40937.693852   6678.051654    -60.758714
PC10   6934.097914  32244.669816  26580.218026 999999.999999
PC11  -3881.762306 -16656.608033  22086.549507   -539.129406
PC12  13556.630296 -22419.167846   9535.233992    468.697344
PC13 -11059.517805  25871.080048 -31463.495381   -364.854044
PC14  -9103.386513 -26267.899645  -2665.828794    302.356677
PE01 -25325.053174 -14686.204319   4338.644159   -362.390231
PE02  25338.029858  14663.625901  -4376.915096     15.626771
PE03  15108.537287  11416.435793  22763.173404    -40.606636
PE04 -16714.159738  11098.857931 -21748.816367    -49.795876
PE05   4634.967037  27314.398247  10429.649729    250.757315
PE07   8542.533491 -27189.613299   8001.455922     19.777733
PE08  16493.871509 -11243.077198  21866.508586   6569.350118
PE09  -8231.885175  27276.446216  -8032.176699   6770.441353
PE11 -15625.016593  19194.758264 -16222.189374    851.600800
PE12 -27360.482703  11066.208887   2086.401000   4325.806604
PE14 -18119.555818  13477.003619   9325.028797   6570.939901
PE18  24510.454820  -8394.354431 -18736.462671   6151.858544
PE19 -14352.949647 -13326.730936 -22184.016403     22.991618
PE24  -4966.082999  16092.801122  24326.691255   6666.582621
PE26  -4613.066880 -16067.974979  24428.405046   5851.273664
PE30  21436.100519  -1004.182768 -20399.030826   5779.016314
PG01  12502.004005  13346.927452 -19519.106429    -54.018598
PG02  11566.811864 -14584.837129  19419.555901     93.293577
PG03  13190.420685  23092.123563   -293.749154     84.549670
PG05   2356.580082 -19892.212147  17234.358507     -6.595955
PG06  23847.653285  -6741.177452   9623.634214    398.035760
PG07  24732.490006   6251.524454   8417.559101    179.479928
PG08  -2583.448303  22936.694811 -12956.327011   -103.894383
PG09  13988.370172   6459.274426  21605.478073    514.541110
PG10 -16754.386219   -115.242362 -20599.982661    187.552551
PG11   7513.544998  14878.829628 -21236.247410   -734.528451
PG12  -9376.643930 -24664.849859  -4015.533830    329.001315
PG13  11469.687737 -23055.602966  -6614.397403    -93.742233
PG14 -17932.897595  18214.514173  -6563.948647    -97.284285
PG15  -1170.685895 -22434.783412 -14080.932854   -353.060947
PG16  -4160.478322  18806.311134  17935.311377     22.303979
PG17  18758.967581 -11022.277127 -14760.372764    -90.737662
PG18   2894.534822  15502.567997 -21843.051804     18.517963
PG19  18987.054791 -16725.346977  -8658.696308   -430.456162
PG20 -20396.201019 -11423.655183 -12837.645417    509.918985
PG21 -25820.458934  -3078.886164   6141.917944   -384.904504
PG22   8349.690124  23758.116253  -8223.732366   -417.413354
PG23   5964.278651  17696.463089  19018.018354   -216.200802
PG24  -8811.376249 -14569.220723 -20564.389122    -50.777914
PG25 -17377.750090 -18150.102250   8777.520375   -596.950933
PG26 -11328.894789  10638.507593  21516.340527   -124.077156
PG27 -11938.743184  23502.015379  -1803.644250    366.880525
PG28  16557.845079   4643.340924 -19609.033032    721.574705
PG29 -11348.155489  -9434.408160  22059.423825    436.918767
PG30  26604.971013    113.541130  -1581.341001     65.490740
PG31 -23257.730790   7150.988564  11170.015744    116.376142
PG32 -18596.061034  10938.517946 -15393.702661   -498.282545
PJ01 -19297.501119  24579.792321 -23667.629158   -229.903123
PR01  11154.855081    -19.146878  22948.924515     27.283928
PR02   5796.735314 -19670.175439  15247.812096    313.540789
PR03  -2577.214114 -25359.995122  -1373.947463    134.265384
PR04  -9600.648260 -15848.537186 -17515.300573    263.809566
PR05 -10940.052195   2343.807012 -22925.263530    -20.394608
PR07   2827.920843  25260.569121   1958.406214    -39.429424
PR08   9450.851869  16375.265379  17180.019139     22.848176
PR09  -8789.865210   7838.306072  22629.984071     24.537156
PR10   8803.186282  14252.306535  19245.992850     25.650823
PR11  21660.056248  12867.622657   4163.262508    -30.648961
PR13   8554.693974  -7750.213086 -22768.536042    -11.140045
PR14  -8500.538779 -14339.168451 -19293.240561     27.952005
PR15 -19814.445503 -13957.589015  -8100.568804    -11.323449
PR16 -22086.926091  -3913.401551  12222.556736     94.308461
PR17   5086.207618 -14674.304464  20230.950188    138.147703
PR18 -10789.159492  -5130.935704  22537.647870    198.339028
PR19 -21207.568091   7097.293143  12261.314874    -54.222823
PR20 -18995.410891  15698.432713  -6475.237108   -340.700117
PR21  -4830.182457  14517.424810 -20418.225059     13.033367
PR22  12591.451469   3541.152990 -21925.989815    -49.114001
PR23  21845.791489  -9859.487164  -8753.163696    158.173802
PR24  18258.968095 -16232.203490   7343.520768   -167.273240
PR26 -19108.495143  15931.534669  -5665.313741     24.761965
EOF
